1 08820U 76039A   03324.70405423 -.00000008  00000-0  10000-3 0    40
2 08820 109.8289 235.1779 0044283 267.9268  91.6283  6.38664614387058
